{"type": "FeatureCollection", "features": [{"type": "Feature", "properties": {"norad_id": 28890, "name": "BEIJING 1", "group": "dmc", "lat": -62.926353878280814, "lon": -86.44957846739315, "alt_km": 689.5347350649854, "timestamp": "2025-12-08T13:49:31.459930+00:00", "meta": {"OBJECT_NAME": "BEIJING 1", "OBJECT_ID": "2005-043A", "EPOCH": "2025-12-08T07:47:29.008320", "MEAN_MOTION": 14.63360225, "ECCENTRICITY": 0.00151437, "INCLINATION": 98.2657, "RA_OF_ASC_NODE": 109.8214, "ARG_OF_PERICENTER": 154.7284, "MEAN_ANOMALY": 205.4661, "EPHEMERIS_TYPE": 0, "CLASSIFICATION_TYPE": "U", "NORAD_CAT_ID": 28890, "ELEMENT_SET_NO": 999, "REV_AT_EPOCH": 7273, "BSTAR": 0.00017300291, "MEAN_MOTION_DOT": 8.46e-06, "MEAN_MOTION_DDOT": 0}, "tle": {"line1": "1 28890U 05043A   25342.32464130  .00000846  00000+0  17300-3 0  9999", "line2": "2 28890  98.2657 109.8214 0015143 154.7284 205.4661 14.63360225 72731"}}, "geometry": {"type": "Point", "coordinates": [-86.44957846739315, -62.926353878280814]}}, {"type": "Feature", "properties": {"norad_id": 33320, "name": "HUANJING 1A (HJ-1A)", "group": "dmc", "lat": -28.248614496660668, "lon": -24.808376141209042, "alt_km": 621.0645224927466, "timestamp": "2025-12-08T13:49:31.459959+00:00", "meta": {"OBJECT_NAME": "HUANJING 1A (HJ-1A)", "OBJECT_ID": "2008-041A", "EPOCH": "2025-12-08T05:51:31.879008", "MEAN_MOTION": 14.83372973, "ECCENTRICITY": 0.00204102, "INCLINATION": 97.654, "RA_OF_ASC_NODE": 330.7301, "ARG_OF_PERICENTER": 48.611, "MEAN_ANOMALY": 311.6855, "EPHEMERIS_TYPE": 0, "CLASSIFICATION_TYPE": "U", "NORAD_CAT_ID": 33320, "ELEMENT_SET_NO": 999, "REV_AT_EPOCH": 93009, "BSTAR": 0.00033681935, "MEAN_MOTION_DOT": 2.721e-05, "MEAN_MOTION_DDOT": 0}, "tle": {"line1": "1 33320U 08041A   25342.24411897  .00002721  00000+0  33682-3 0  9992", "line2": "2 33320  97.6540 330.7301 0020410  48.6110 311.6855 14.83372973930095"}}, "geometry": {"type": "Point", "coordinates": [-24.808376141209042, -28.248614496660668]}}, {"type": "Feature", "properties": {"norad_id": 33321, "name": "HUANJING 1B (HJ-1B)", "group": "dmc", "lat": -21.790698108312082, "lon": 151.68009596107694, "alt_km": 636.1916986205779, "timestamp": "2025-12-08T13:49:31.459973+00:00", "meta": {"OBJECT_NAME": "HUANJING 1B (HJ-1B)", "OBJECT_ID": "2008-041B", "EPOCH": "2025-12-08T06:26:36.008448", "MEAN_MOTION": 14.828038, "ECCENTRICITY": 0.00382334, "INCLINATION": 97.6398, "RA_OF_ASC_NODE": 334.4622, "ARG_OF_PERICENTER": 89.9808, "MEAN_ANOMALY": 270.5787, "EPHEMERIS_TYPE": 0, "CLASSIFICATION_TYPE": "U", "NORAD_CAT_ID": 33321, "ELEMENT_SET_NO": 999, "REV_AT_EPOCH": 93011, "BSTAR": 0.00028207054, "MEAN_MOTION_DOT": 2.259e-05, "MEAN_MOTION_DDOT": 0}, "tle": {"line1": "1 33321U 08041B   25342.26847232  .00002259  00000+0  28207-3 0  9994", "line2": "2 33321  97.6398 334.4622 0038233  89.9808 270.5787 14.82803800930115"}}, "geometry": {"type": "Point", "coordinates": [151.68009596107694, -21.790698108312082]}}, {"type": "Feature", "properties": {"norad_id": 33446, "name": "YAOGAN-4", "group": "dmc", "lat": 63.60754555822209, "lon": 109.00290435207728, "alt_km": 621.9535608883871, "timestamp": "2025-12-08T13:49:31.459986+00:00", "meta": {"OBJECT_NAME": "YAOGAN-4", "OBJECT_ID": "2008-061A", "EPOCH": "2025-12-08T06:49:44.507424", "MEAN_MOTION": 14.82661208, "ECCENTRICITY": 0.00139672, "INCLINATION": 97.9177, "RA_OF_ASC_NODE": 272.4273, "ARG_OF_PERICENTER": 338.5116, "MEAN_ANOMALY": 21.5509, "EPHEMERIS_TYPE": 0, "CLASSIFICATION_TYPE": "U", "NORAD_CAT_ID": 33446, "ELEMENT_SET_NO": 999, "REV_AT_EPOCH": 91737, "BSTAR": 0.00034965041, "MEAN_MOTION_DOT": 2.769e-05, "MEAN_MOTION_DDOT": 0}, "tle": {"line1": "1 33446U 08061A   25342.28454291  .00002769  00000+0  34965-3 0  9999", "line2": "2 33446  97.9177 272.4273 0013967 338.5116  21.5509 14.82661208917379"}}, "geometry": {"type": "Point", "coordinates": [109.00290435207728, 63.60754555822209]}}, {"type": "Feature", "properties": {"norad_id": 35681, "name": "DEIMOS-1", "group": "dmc", "lat": 0.4632267975674639, "lon": 143.31068233068632, "alt_km": 648.2015028431051, "timestamp": "2025-12-08T13:49:31.459997+00:00", "meta": {"OBJECT_NAME": "DEIMOS-1", "OBJECT_ID": "2009-041A", "EPOCH": "2025-12-08T05:40:56.735328", "MEAN_MOTION": 14.74942652, "ECCENTRICITY": 0.00027029, "INCLINATION": 97.7153, "RA_OF_ASC_NODE": 143.0501, "ARG_OF_PERICENTER": 89.0402, "MEAN_ANOMALY": 271.1117, "EPHEMERIS_TYPE": 0, "CLASSIFICATION_TYPE": "U", "NORAD_CAT_ID": 35681, "ELEMENT_SET_NO": 999, "REV_AT_EPOCH": 87873, "BSTAR": 0.00021265104, "MEAN_MOTION_DOT": 1.381e-05, "MEAN_MOTION_DDOT": 0}, "tle": {"line1": "1 35681U 09041A   25342.23676777  .00001381  00000+0  21265-3 0  9999", "line2": "2 35681  97.7153 143.0501 0002702  89.0402 271.1117 14.74942652878732"}}, "geometry": {"type": "Point", "coordinates": [143.31068233068632, 0.4632267975674639]}}, {"type": "Feature", "properties": {"norad_id": 35683, "name": "UK-DMC 2", "group": "dmc", "lat": 5.464407057597471, "lon": 116.83977233341373, "alt_km": 645.5753912530081, "timestamp": "2025-12-08T13:49:31.460008+00:00", "meta": {"OBJECT_NAME": "UK-DMC 2", "OBJECT_ID": "2009-041C", "EPOCH": "2025-12-08T07:17:26.627424", "MEAN_MOTION": 14.75607701, "ECCENTRICITY": 0.00013579, "INCLINATION": 97.8564, "RA_OF_ASC_NODE": 117.3321, "ARG_OF_PERICENTER": 101.3385, "MEAN_ANOMALY": 258.7977, "EPHEMERIS_TYPE": 0, "CLASSIFICATION_TYPE": "U", "NORAD_CAT_ID": 35683, "ELEMENT_SET_NO": 999, "REV_AT_EPOCH": 87841, "BSTAR": 0.00029831789, "MEAN_MOTION_DOT": 1.986e-05, "MEAN_MOTION_DDOT": 0}, "tle": {"line1": "1 35683U 09041C   25342.30378041  .00001986  00000+0  29832-3 0  9991", "line2": "2 35683  97.8564 117.3321 0001357 101.3385 258.7977 14.75607701878412"}}, "geometry": {"type": "Point", "coordinates": [116.83977233341373, 5.464407057597471]}}, {"type": "Feature", "properties": {"norad_id": 40715, "name": "DMC3-FM1", "group": "dmc", "lat": -81.9775364345963, "lon": -43.05850638252342, "alt_km": 618.3686068382294, "timestamp": "2025-12-08T13:49:31.460019+00:00", "meta": {"OBJECT_NAME": "DMC3-FM1", "OBJECT_ID": "2015-032A", "EPOCH": "2025-12-08T06:09:24.781248", "MEAN_MOTION": 14.85429071, "ECCENTRICITY": 0.00049202, "INCLINATION": 97.6702, "RA_OF_ASC_NODE": 209.6123, "ARG_OF_PERICENTER": 337.7619, "MEAN_ANOMALY": 22.3383, "EPHEMERIS_TYPE": 0, "CLASSIFICATION_TYPE": "U", "NORAD_CAT_ID": 40715, "ELEMENT_SET_NO": 999, "REV_AT_EPOCH": 56156, "BSTAR": 0.00018174962, "MEAN_MOTION_DOT": 1.515e-05, "MEAN_MOTION_DDOT": 0}, "tle": {"line1": "1 40715U 15032A   25342.25653682  .00001515  00000+0  18175-3 0  9997", "line2": "2 40715  97.6702 209.6123 0004920 337.7619  22.3383 14.85429071561569"}}, "geometry": {"type": "Point", "coordinates": [-43.05850638252342, -81.9775364345963]}}, {"type": "Feature", "properties": {"norad_id": 40716, "name": "DMC3-FM2", "group": "dmc", "lat": 32.10675144631066, "lon": 36.215564778748245, "alt_km": 614.1758998292362, "timestamp": "2025-12-08T13:49:31.460030+00:00", "meta": {"OBJECT_NAME": "DMC3-FM2", "OBJECT_ID": "2015-032B", "EPOCH": "2025-12-08T06:41:48.909120", "MEAN_MOTION": 14.85430547, "ECCENTRICITY": 0.00055526, "INCLINATION": 97.676, "RA_OF_ASC_NODE": 211.0747, "ARG_OF_PERICENTER": 342.0365, "MEAN_ANOMALY": 18.0653, "EPHEMERIS_TYPE": 0, "CLASSIFICATION_TYPE": "U", "NORAD_CAT_ID": 40716, "ELEMENT_SET_NO": 999, "REV_AT_EPOCH": 56156, "BSTAR": 0.00018982721, "MEAN_MOTION_DOT": 1.585e-05, "MEAN_MOTION_DDOT": 0}, "tle": {"line1": "1 40716U 15032B   25342.27903830  .00001585  00000+0  18983-3 0  9997", "line2": "2 40716  97.6760 211.0747 0005552 342.0365  18.0653 14.85430547561564"}}, "geometry": {"type": "Point", "coordinates": [36.215564778748245, 32.10675144631066]}}, {"type": "Feature", "properties": {"norad_id": 40717, "name": "DMC3-FM3", "group": "dmc", "lat": 31.675218401997366, "lon": -151.7854963182112, "alt_km": 608.2368486198466, "timestamp": "2025-12-08T13:49:31.460040+00:00", "meta": {"OBJECT_NAME": "DMC3-FM3", "OBJECT_ID": "2015-032C", "EPOCH": "2025-12-08T05:35:54.445920", "MEAN_MOTION": 14.85421138, "ECCENTRICITY": 0.00049186, "INCLINATION": 97.6814, "RA_OF_ASC_NODE": 212.6607, "ARG_OF_PERICENTER": 344.3893, "MEAN_ANOMALY": 15.717, "EPHEMERIS_TYPE": 0, "CLASSIFICATION_TYPE": "U", "NORAD_CAT_ID": 40717, "ELEMENT_SET_NO": 999, "REV_AT_EPOCH": 56156, "BSTAR": 0.00015512189, "MEAN_MOTION_DOT": 1.285e-05, "MEAN_MOTION_DDOT": 0}, "tle": {"line1": "1 40717U 15032C   25342.23326905  .00001285  00000+0  15512-3 0  9998", "line2": "2 40717  97.6814 212.6607 0004918 344.3893  15.7170 14.85421138561567"}}, "geometry": {"type": "Point", "coordinates": [-151.7854963182112, 31.675218401997366]}}]}